[{"OBJECT_NAME":"SKYSAT-C10","OBJECT_ID":"2017-068B","EPOCH":"2026-03-09T22:15:51.699744","MEAN_MOTION":15.3268588,"ECCENTRICITY":0.00010197,"INCLINATION":97.4337,"RA_OF_ASC_NODE":205.0399,"ARG_OF_PERICENTER":91.4285,"MEAN_ANOMALY":268.7074,"EPHEMERIS_TYPE":0,"CLASSIFICATION_TYPE":"U","NORAD_CAT_ID":42988,"ELEMENT_SET_NO":999,"REV_AT_EPOCH":46714,"BSTAR":0.00040981809,"MEAN_MOTION_DOT":0.00012865,"MEAN_MOTION_DDOT":0},{"OBJECT_NAME":"STARLINK-35385","OBJECT_ID":"2025-224AA","EPOCH":"2026-03-09T05:15:28.942272","MEAN_MOTION":15.30183882,"ECCENTRICITY":9.069e-5,"INCLINATION":53.1605,"RA_OF_ASC_NODE":13.4269,"ARG_OF_PERICENTER":116.6777,"MEAN_ANOMALY":243.4317,"EPHEMERIS_TYPE":0,"CLASSIFICATION_TYPE":"U","NORAD_CAT_ID":65906,"ELEMENT_SET_NO":999,"REV_AT_EPOCH":2478,"BSTAR":0.0010647588,"MEAN_MOTION_DOT":0.00031293,"MEAN_MOTION_DDOT":0}]
